[{"OBJECT_NAME":"FLOCK 4G-21","OBJECT_ID":"2025-009AU","EPOCH":"2026-03-09T04:40:37.351200","MEAN_MOTION":15.28381075,"ECCENTRICITY":4.655e-5,"INCLINATION":97.4032,"RA_OF_ASC_NODE":151.1274,"ARG_OF_PERICENTER":329.5782,"MEAN_ANOMALY":30.5431,"EPHEMERIS_TYPE":0,"CLASSIFICATION_TYPE":"U","NORAD_CAT_ID":62651,"ELEMENT_SET_NO":999,"REV_AT_EPOCH":6367,"BSTAR":0.00049618643,"MEAN_MOTION_DOT":0.00013648,"MEAN_MOTION_DDOT":0},{"OBJECT_NAME":"STARLINK-35876","OBJECT_ID":"2025-303T","EPOCH":"2026-03-09T03:36:28.703808","MEAN_MOTION":15.27561943,"ECCENTRICITY":0.00017806,"INCLINATION":43.0004,"RA_OF_ASC_NODE":313.675,"ARG_OF_PERICENTER":280.7112,"MEAN_ANOMALY":79.3539,"EPHEMERIS_TYPE":0,"CLASSIFICATION_TYPE":"U","NORAD_CAT_ID":67180,"ELEMENT_SET_NO":999,"REV_AT_EPOCH":1265,"BSTAR":0.00090905271,"MEAN_MOTION_DOT":0.00024824,"MEAN_MOTION_DDOT":0}]
